*******************************************************************************
Ephemeris / PORT_LOGIN Thu Oct  8 16:13:00 2015 Pasadena, USA    / Horizons    
*******************************************************************************
Target body name: Nereid (802)                    {source: NEP081}
Center body name: Neptune (899)                   {source: NEP081}
Center-site name: BODY CENTER
*******************************************************************************
Start time      : A.D. 1900-Jan-01 00:00:00.0000 CT 
Stop  time      : A.D. 2099-Dec-31 00:00:00.0000 CT 
Step-size       : 14400 minutes
*******************************************************************************
Center geodetic : 0.00000000,0.00000000,0.0000000 {E-lon(deg),Lat(deg),Alt(km)}
Center cylindric: 0.00000000,0.00000000,0.0000000 {E-lon(deg),Dxy(km),Dz(km)}
Center radii    : 24764.0 x 24764.0 x 24341.0 km  {Equator, meridian, pole}    
Output units    : AU-D                                                         
Output format   : 03
Reference frame : ICRF/J2000.0                                                 
Output type     : GEOMETRIC cartesian states
Coordinate systm: Ecliptic and Mean Equinox of Reference Epoch                 
*******************************************************************************
JDCT 
   X     Y     Z
   VX    VY    VZ
   LT    RG    RR
*******************************************************************************
$$SOE
2454700.500000000 = A.D. 2008-Aug-22 00:00:00.0000 (CT)
   2.536316244519133E-02  5.516603241227932E-02  5.176652041276536E-03
  -1.759051776135522E-04  2.363225867930609E-04  5.967956522064334E-06
   3.519456464946398E-04  6.093749968361245E-02  1.412326066381681E-04
2454710.500000000 = A.D. 2008-Sep-01 00:00:00.0000 (CT)
   2.352062977422367E-02  5.734033070062735E-02  5.216194600277522E-03
  -1.925479949890381E-04  1.990721745889400E-04  2.575033650822747E-06
   3.592141297819363E-04  6.219599855249025E-02  1.109307070794720E-04
2454720.500000000 = A.D. 2008-Sep-11 00:00:00.0000 (CT)
   2.152894843659389E-02  5.915206323534227E-02  5.223448132450069E-03
  -2.059729436200428E-04  1.627843577541862E-04 -1.280812224603504E-06
   3.648073873171744E-04  6.316444107388147E-02  8.213417860818272E-05
2454730.500000000 = A.D. 2008-Sep-21 00:00:00.0000 (CT)
   1.940566417484883E-02  6.060520491917030E-02  5.199394320476226E-03
  -2.177996713061643E-04  1.278437745817101E-04 -4.006812846691682E-06
   3.687569797617973E-04  6.384829180691866E-02  5.482711875883328E-05
2454740.500000000 = A.D. 2008-Oct-01 00:00:00.0000 (CT)
   1.716900278786504E-02  6.170250815545290E-02  5.143876818194052E-03
  -2.291497608898429E-04  9.223322262003803E-05 -6.604183766817435E-06
   3.710937334708053E-04  6.425288816951501E-02  2.681244732585312E-05
2454750.500000000 = A.D. 2008-Oct-11 00:00:00.0000 (CT)
   1.483434456366924E-02  6.244595347565243E-02  5.059047408551363E-03
  -2.382378763073005E-04  5.610316801180668E-05 -1.014072145431753E-05
   3.718442169575820E-04  6.438283035716107E-02 -1.273465548140571E-06
2454760.500000000 = A.D. 2008-Oct-21 00:00:00.0000 (CT)
   1.241384243245184E-02  6.283259146164306E-02  4.946123346527534E-03
  -2.453614957420039E-04  2.072705318228008E-05 -1.303993012041940E-05
   3.710069160872612E-04  6.423785620553155E-02 -2.814604490141733E-05
2454770.500000000 = A.D. 2008-Oct-31 00:00:00.0000 (CT)
   9.921607543723773E-03  6.285665597790473E-02  4.803970288571288E-03
  -2.523448598092882E-04 -1.546721951832724E-05 -1.523486293876486E-05
   3.685701959913826E-04  6.381595119960071E-02 -5.561418615715108E-05
2454780.500000000 = A.D. 2008-Nov-10 00:00:00.0000 (CT)
   7.372241696228301E-03  6.251228317506058E-02  4.633254379411419E-03
  -2.578943071878087E-04 -5.350011145199625E-05 -1.839410301312885E-05
   3.645263835817271E-04  6.311578678532737E-02 -8.446219419124108E-05
2454790.500000000 = A.D. 2008-Nov-20 00:00:00.0000 (CT)
   4.777728508040920E-03  6.178933338993168E-02  4.435412752714995E-03
  -2.609366414684199E-04 -9.193455671651014E-05 -2.163428727457930E-05
   3.588461722520177E-04  6.213228868113276E-02 -1.130364991939272E-04
2454800.500000000 = A.D. 2008-Nov-30 00:00:00.0000 (CT)
   2.152011704696794E-03  6.067243679185189E-02  4.209140074672308E-03
  -2.632527496326056E-04 -1.314484696348312E-04 -2.386317138475206E-05
   3.514768352509109E-04  6.085632753302345E-02 -1.420109583527297E-04
2454810.500000000 = A.D. 2008-Dec-10 00:00:00.0000 (CT)
  -4.872122476029033E-04  5.914463124949432E-02  3.953529316286447E-03
  -2.645371136068116E-04 -1.740438205603103E-04 -2.666557539578041E-05
   3.423647752939788E-04  5.927862325887478E-02 -1.732546141601428E-04
2454820.500000000 = A.D. 2008-Dec-20 00:00:00.0000 (CT)
  -3.122375064370449E-03  5.718453486605479E-02  3.669698832535398E-03
  -2.626784514779354E-04 -2.190042775983051E-04 -3.023331802329776E-05
   3.314406353562839E-04  5.738716706208061E-02 -2.058722337760003E-04
2454830.500000000 = A.D. 2008-Dec-30 00:00:00.0000 (CT)
  -5.733141268524549E-03  5.476212560295503E-02  3.356660156347173E-03
  -2.584556704239494E-04 -2.661877016970394E-04 -3.291738275864229E-05
   3.185985773372117E-04  5.516363364358707E-02 -2.393920247636885E-04
2454840.500000000 = A.D. 2009-Jan-09 00:00:00.0000 (CT)
  -8.290903028316495E-03  5.184085660880466E-02  3.012140768928826E-03
  -2.523167903289177E-04 -3.182124591069194E-04 -3.556670740500859E-05
   3.037113566183360E-04  5.258599128067700E-02 -2.759595093415566E-04
2454850.500000000 = A.D. 2009-Jan-19 00:00:00.0000 (CT)
  -1.075991875464086E-02  4.837593443813627E-02  2.636200398159270E-03
  -2.413921750264070E-04 -3.760305404467267E-04 -3.937707769685408E-05
   2.866284742151309E-04  4.962818188195681E-02 -3.162975924714950E-04
2454860.500000000 = A.D. 2009-Jan-29 00:00:00.0000 (CT)
  -1.309409145277247E-02  4.430634690587822E-02  2.228242775607248E-03
  -2.241067939944674E-04 -4.396688675593369E-04 -4.283588704475799E-05
   2.671433319969448E-04  4.625443408998362E-02 -3.597729730628191E-04
2454870.500000000 = A.D. 2009-Feb-08 00:00:00.0000 (CT)
  -1.522415063938466E-02  3.955093463971902E-02  1.785271306354408E-03
  -1.996430603817794E-04 -5.126602505306530E-04 -4.568913856889042E-05
   2.449826458580793E-04  4.241743022866065E-02 -4.082841287296386E-04
2454880.500000000 = A.D. 2009-Feb-18 00:00:00.0000 (CT)
  -1.704381976395326E-02  3.400244683784256E-02  1.306252375366301E-03
  -1.620720240713047E-04 -5.993960081973559E-04 -4.958067658416846E-05
   2.198011190486472E-04  3.805738401906500E-02 -4.646501557804659E-04
2454890.500000000 = A.D. 2009-Feb-28 00:00:00.0000 (CT)
  -1.838175667241669E-02  2.750897438710588E-02  7.923269983678879E-04
  -1.007652364903282E-04 -7.035235238589134E-04 -5.357604389099230E-05
   1.911391568322149E-04  3.309471909937786E-02 -5.300972107881695E-04
2454900.500000000 = A.D. 2009-Mar-10 00:00:00.0000 (CT)
  -1.892211099630846E-02  1.984981038362773E-02  2.458926441017880E-04
   3.663556620337788E-06 -8.332491629876496E-04 -5.575971727271897E-05
   1.583926525722713E-04  2.742483764792449E-02 -6.061246826817673E-04
2454910.500000000 = A.D. 2009-Mar-20 00:00:00.0000 (CT)
  -1.798939815201463E-02  1.071983243846915E-02 -3.155708836392038E-04
   2.085632740485902E-04 -9.977212142151365E-04 -5.481733254729349E-05
   1.209599330287500E-04  2.094356317256364E-02 -6.889960958636177E-04
2454920.500000000 = A.D. 2009-Mar-30 00:00:00.0000 (CT)
  -1.380462504907156E-02 -6.827240438139268E-05 -8.006113468248251E-04
   7.093810989788181E-04 -1.134675427782532E-03 -3.581617026808869E-05
   7.986381076674725E-05  1.382799017917349E-02 -7.005065892313380E-04
2454930.500000000 = A.D. 2009-Apr-09 00:00:00.0000 (CT)
  -1.793666916288702E-03 -9.140340578335786E-03 -7.183656304279598E-04
   1.648432192208344E-03 -3.586424107583532E-04  7.074610946191847E-05
   5.395679392148581E-05  9.342329263815343E-03  2.896000687765875E-05
2454940.500000000 = A.D. 2009-Apr-19 00:00:00.0000 (CT)
   1.277095162762421E-02 -6.071642762263855E-03  3.274120142852260E-04
   1.112466340445509E-03  7.011624412562861E-04  1.117264637572542E-04
   8.169230283544329E-05  1.414458376675563E-02  7.060389129006599E-04
2454950.500000000 = A.D. 2009-Apr-29 00:00:00.0000 (CT)
   2.114597903150026E-02  1.665298059090704E-03  1.330589292474735E-03
   6.210784265038749E-04  7.913504699293249E-04  8.896257864725616E-05
   1.227479207082988E-04  2.125314364256517E-02  6.855229835647237E-04
2454960.500000000 = A.D. 2009-May-09 00:00:00.0000 (CT)
   2.598529772568415E-02  9.345660304763151E-03  2.127099441984958E-03
   3.714437793971534E-04  7.379028142633812E-04  7.074196406403194E-05
   1.599622173588692E-04  2.769659936635840E-02  6.029166688453196E-04
2454970.500000000 = A.D. 2009-May-19 00:00:00.0000 (CT)
   2.889535973102082E-02  1.638254435453877E-02  2.768559538427817E-03
   2.222989761121399E-04  6.699822242102551E-04  5.822272695280529E-05
   1.925071747095287E-04  3.333158405223714E-02  5.268461122643455E-04
2454980.500000000 = A.D. 2009-May-29 00:00:00.0000 (CT)
   3.059177063902371E-02  2.274951803083470E-02  3.294339295447425E-03
   1.223860499038541E-04  6.045487801748352E-04  4.790355225553338E-05
   2.210031859588498E-04  3.826551545268188E-02  4.613817346743960E-04
2454990.500000000 = A.D. 2009-Jun-08 00:00:00.0000 (CT)
   3.144399220484376E-02  2.849835018821200E-02  3.730756279472080E-03
   5.128127968424825E-05  5.455428397010576E-04  3.927644855643304E-05
   2.460397349077626E-04  4.260045952387203E-02  4.062418597740176E-04
2455000.500000000 = A.D. 2009-Jun-18 00:00:00.0000 (CT)
   3.166909002882116E-02  3.368365375694712E-02  4.093178069003900E-03
  -3.299073634783651E-06  4.924996610478191E-04  3.304859270368600E-05
   2.680658102586025E-04  4.641415624974833E-02  3.580800453127524E-04
